[{"CCSDS_OMM_VERS":"3.0","COMMENT":"GENERATED VIA SPACE-TRACK.ORG API","CREATION_DATE":"2026-06-24T02:28:56","ORIGINATOR":"18 SPCS","OBJECT_NAME":"QZS-2","OBJECT_ID":"2017-028A","CENTER_NAME":"EARTH","REF_FRAME":"TEME","TIME_SYSTEM":"UTC","MEAN_ELEMENT_THEORY":"SGP4","EPOCH":"2026-06-23T11:46:24.276000","MEAN_MOTION":"1.00282240","ECCENTRICITY":"0.07593906","INCLINATION":"39.4179","RA_OF_ASC_NODE":"243.0621","ARG_OF_PERICENTER":"269.3295","MEAN_ANOMALY":"77.7964","EPHEMERIS_TYPE":"0","CLASSIFICATION_TYPE":"U","NORAD_CAT_ID":"42738","ELEMENT_SET_NO":"999","REV_AT_EPOCH":"768","BSTAR":"0.00000000000000","MEAN_MOTION_DOT":"-0.00000168","MEAN_MOTION_DDOT":"0.0000000000000","SEMIMAJOR_AXIS":"42161.801","PERIOD":"1435.947","APOAPSIS":"38985.394","PERIAPSIS":"32581.939","OBJECT_TYPE":"PAYLOAD","RCS_SIZE":"LARGE","COUNTRY_CODE":"JPN","LAUNCH_DATE":"2017-06-01","SITE":"TNSTA","DECAY_DATE":null,"FILE":"5257684","GP_ID":"331030463","TLE_LINE0":"0 QZS-2","TLE_LINE1":"1 42738U 17028A   26174.49055875 -.00000168  00000-0  00000-0 0  9991","TLE_LINE2":"2 42738  39.4179 243.0621 0759391 269.3295  77.7964  1.00282240  7687"}]